$$SOE
2460728.500000000, A.D. 2025-Feb-22 00:00:00.0000, 4.017883146487104E+08, -7.818005575136675E+07, 3.921859771228962E+07,
2460735.500000000, A.D. 2025-Mar-01 00:00:00.0000, 4.038405175942788E+08, -6.923213712288506E+07, 3.535560019612159E+07,
2460742.500000000, A.D. 2025-Mar-08 00:00:00.0000, 4.056108702698746E+08, -6.023593669561422E+07, 3.146792433455904E+07,
2460749.500000000, A.D. 2025-Mar-15 00:00:00.0000, 4.070981619552476E+08, -5.119773428488536E+07, 2.755828510182744E+07,
2460756.500000000, A.D. 2025-Mar-22 00:00:00.0000, 4.083012834610356E+08, -4.212382398013911E+07, 2.362940621531713E+07,
2460763.500000000, A.D. 2025-Mar-29 00:00:00.0000, 4.092192260820636E+08, -3.302051792268405E+07, 1.968402091357578E+07,
2460770.500000000, A.D. 2025-Apr-05 00:00:00.0000, 4.098510824777452E+08, -2.389414922922558E+07, 1.572487266707801E+07,
2460777.500000000, A.D. 2025-Apr-12 00:00:00.0000, 4.101960475555484E+08, -1.475107395036729E+07, 1.175471600434121E+07,
2460784.500000000, A.D. 2025-Apr-19 00:00:00.0000, 4.102534191731903E+08, -5.597672939313024E+06, 7.776317395969091E+06,
2460791.500000000, A.D. 2025-Apr-26 00:00:00.0000, 4.100225989341441E+08, 3.559646172331798E+06, 3.792456152422801E+06,
2460798.500000000, A.D. 2025-May-03 00:00:00.0000, 4.095030931933280E+08, 1.271444691725451E+07, -1.940746760893827E+05,
2460805.500000000, A.D. 2025-May-10 00:00:00.0000, 4.086945143052916E+08, 2.186026186900079E+07, -4.180467402305285E+06,
2460812.500000000, A.D. 2025-May-17 00:00:00.0000, 4.075965821561046E+08, 3.099059041824786E+07, -8.163898816775117E+06,
2460819.500000000, A.D. 2025-May-24 00:00:00.0000, 4.062091261577918E+08, 4.009889640088706E+07, -1.214152933837716E+07,
2460826.500000000, A.D. 2025-May-31 00:00:00.0000, 4.045320881266731E+08, 4.917860589524453E+07, -1.611050221670319E+07,
2460833.500000000, A.D. 2025-Jun-07 00:00:00.0000, 4.025655256469644E+08, 5.822310640210258E+07, -2.006794265417987E+07,
2460840.500000000, A.D. 2025-Jun-14 00:00:00.0000, 4.003096135625808E+08, 6.722574675213213E+07, -2.401095668849718E+07,
2460847.500000000, A.D. 2025-Jun-21 00:00:00.0000, 3.977646448247790E+08, 7.617983447764462E+07, -2.793663021822411E+07,
2460854.500000000, A.D. 2025-Jun-28 00:00:00.0000, 3.949310338296601E+08, 8.507863242084254E+07, -3.184202831879367E+07,
2460861.500000000, A.D. 2025-Jul-05 00:00:00.0000, 3.918093207342672E+08, 9.391535674556772E+07, -3.572419453792206E+07,
2460868.500000000, A.D. 2025-Jul-12 00:00:00.0000, 3.884001755684001E+08, 1.026831755581461E+08, -3.958015013188604E+07,
2460875.500000000, A.D. 2025-Jul-19 00:00:00.0000, 3.847044023397147E+08, 1.113752075723638E+08, -4.340689331234537E+07,
2460882.500000000, A.D. 2025-Jul-26 00:00:00.0000, 3.807229433480122E+08, 1.199845207721710E+08, -4.720139853290930E+07,
2460889.500000000, A.D. 2025-Aug-02 00:00:00.0000, 3.764568837779619E+08, 1.285041311058961E+08, -5.096061582466734E+07,
2460896.500000000, A.D. 2025-Aug-09 00:00:00.0000, 3.719074565974501E+08, 1.369270012134415E+08, -5.468147018890130E+07,
2460903.500000000, A.D. 2025-Aug-16 00:00:00.0000, 3.670760478454356E+08, 1.452460391433509E+08, -5.836086106489591E+07,
2460910.500000000, A.D. 2025-Aug-23 00:00:00.0000, 3.619642026132712E+08, 1.534540970974442E+08, -6.199566190575507E+07,
2460917.500000000, A.D. 2025-Aug-30 00:00:00.0000, 3.565736320601418E+08, 1.615439709359812E+08, -6.558271984267636E+07,
2460924.500000000, A.D. 2025-Sep-06 00:00:00.0000, 3.509062200521477E+08, 1.695084014632766E+08, -6.911885523434159E+07,
2460931.500000000, A.D. 2025-Sep-13 00:00:00.0000, 3.449640277645079E+08, 1.773400750355656E+08, -7.260086116106765E+07,
2460938.500000000, A.D. 2025-Sep-20 00:00:00.0000, 3.387492995324712E+08, 1.850316218694502E+08, -7.602550331024410E+07,
2460945.500000000, A.D. 2025-Sep-27 00:00:00.0000, 3.322644710147935E+08, 1.925756151846009E+08, -7.938952010690323E+07,
2460952.500000000, A.D. 2025-Oct-04 00:00:00.0000, 3.255121776565209E+08, 1.999645717469943E+08, -8.268962287170738E+07,
2460959.500000000, A.D. 2025-Oct-11 00:00:00.0000, 3.184952630822713E+08, 2.071909528997088E+08, -8.592249606195621E+07,
2460966.500000000, A.D. 2025-Oct-18 00:00:00.0000, 3.112167877080149E+08, 2.142471658384435E+08, -8.908479765790269E+07,
2460973.500000000, A.D. 2025-Oct-25 00:00:00.0000, 3.036800377134930E+08, 2.211255651761711E+08, -9.217315972078383E+07,
2460980.500000000, A.D. 2025-Nov-01 00:00:00.0000, 2.958885344150670E+08, 2.278184548483054E+08, -9.518418913998730E+07,
2460987.500000000, A.D. 2025-Nov-08 00:00:00.0000, 2.878460440714787E+08, 2.343180903662043E+08, -9.811446859095901E+07,
2460994.500000000, A.D. 2025-Nov-15 00:00:00.0000, 2.795565882662904E+08, 2.406166814038278E+08, -1.009605577395609E+08,
2461001.500000000, A.D. 2025-Nov-22 00:00:00.0000, 2.710244552644730E+08, 2.467063949846674E+08, -1.037189947315330E+08,
2461008.500000000, A.D. 2025-Nov-29 00:00:00.0000, 2.622542121820065E+08, 2.525793604515292E+08, -1.063862978812937E+08,
2461015.500000000, A.D. 2025-Dec-06 00:00:00.0000, 2.532507156760834E+08, 2.582276761334968E+08, -1.089589673829293E+08,
2461022.500000000, A.D. 2025-Dec-13 00:00:00.0000, 2.440191215742044E+08, 2.636434143994316E+08, -1.114334873837574E+08,
2461029.500000000, A.D. 2025-Dec-20 00:00:00.0000, 2.345648969215200E+08, 2.688186261798914E+08, -1.138063286861050E+08,
2461036.500000000, A.D. 2025-Dec-27 00:00:00.0000, 2.248938333488125E+08, 2.737453476047355E+08, -1.160739517932682E+08,
2461043.500000000, A.D. 2026-Jan-03 00:00:00.0000, 2.150120602700599E+08, 2.784156082017834E+08, -1.182328102425722E+08,
2461050.500000000, A.D. 2026-Jan-10 00:00:00.0000, 2.049260579822018E+08, 2.828214400426438E+08, -1.202793543193746E+08,
2461057.500000000, A.D. 2026-Jan-17 00:00:00.0000, 1.946426708557928E+08, 2.869548878116134E+08, -1.222100352102793E+08,
2461064.500000000, A.D. 2026-Jan-24 00:00:00.0000, 1.841691206426575E+08, 2.908080198898747E+08, -1.240213096311704E+08,
2461071.500000000, A.D. 2026-Jan-31 00:00:00.0000, 1.735130198634002E+08, 2.943729405189357E+08, -1.257096449639031E+08,
2461078.500000000, A.D. 2026-Feb-07 00:00:00.0000, 1.626823852660604E+08, 2.976418030587569E+08, -1.272715249437322E+08,
2461085.500000000, A.D. 2026-Feb-14 00:00:00.0000, 1.516856515283754E+08, 3.006068243992909E+08, -1.287034559545159E+08,
2461092.500000000, A.D. 2026-Feb-21 00:00:00.0000, 1.405316855004507E+08, 3.032603011769623E+08, -1.300019739539445E+08,
2461099.500000000, A.D. 2026-Feb-28 00:00:00.0000, 1.292297998017223E+08, 3.055946290199094E+08, -1.311636518678125E+08,
2461106.500000000, A.D. 2026-Mar-07 00:00:00.0000, 1.177897635946913E+08, 3.076023229371268E+08, -1.321851074514342E+08,
2461113.500000000, A.D. 2026-Mar-14 00:00:00.0000, 1.062218131761880E+08, 3.092760365890817E+08, -1.330630120944472E+08,
2461120.500000000, A.D. 2026-Mar-21 00:00:00.0000, 9.453666402759930E+07, 3.106085834036121E+08, -1.337941005298309E+08,
2461127.500000000, A.D. 2026-Mar-28 00:00:00.0000, 8.274552215742742E+07, 3.115929606182829E+08, -1.343751812054097E+08,
2461134.500000000, A.D. 2026-Apr-04 00:00:00.0000, 7.086009395711285E+07, 3.122223753280712E+08, -1.348031473631500E+08,
2461141.500000000, A.D. 2026-Apr-11 00:00:00.0000, 5.889259465336759E+07, 3.124902722129121E+08, -1.350749888979232E+08,
2461148.500000000, A.D. 2026-Apr-18 00:00:00.0000, 4.685575530891202E+07, 3.123903629592347E+08, -1.351878050205821E+08,
2461155.500000000, A.D. 2026-Apr-25 00:00:00.0000, 3.476282819112813E+07, 3.119166573959710E+08, -1.351388177299455E+08,
2461162.500000000, A.D. 2026-May-02 00:00:00.0000, 2.262759029387886E+07, 3.110634963054485E+08, -1.349253860940564E+08,
2461169.500000000, A.D. 2026-May-09 00:00:00.0000, 1.046434487527649E+07, 3.098255858151659E+08, -1.345450213476915E+08,
2461176.500000000, A.D. 2026-May-16 00:00:00.0000, -1.712078885016083E+06, 3.081980334592817E+08, -1.339954028135417E+08,
2461183.500000000, A.D. 2026-May-23 00:00:00.0000, -1.388632834067588E+07, 3.061763868568155E+08, -1.332743945436068E+08,
2461190.500000000, A.D. 2026-May-30 00:00:00.0000, -2.604253431213606E+07, 3.037566752183625E+08, -1.323800624251499E+08,
2461197.500000000, A.D. 2026-Jun-06 00:00:00.0000, -3.816432311135184E+07, 3.009354502585390E+08, -1.313106919266727E+08,
2461204.500000000, A.D. 2026-Jun-13 00:00:00.0000, -5.023483030141977E+07, 2.977098265305682E+08, -1.300648067263646E+08,
2461211.500000000, A.D. 2026-Jun-20 00:00:00.0000, -6.223671699620376E+07, 2.940775238941357E+08, -1.286411878513963E+08,
2461218.500000000, A.D. 2026-Jun-27 00:00:00.0000, -7.415219069170682E+07, 2.900369115144382E+08, -1.270388930899551E+08,
2461225.500000000, A.D. 2026-Jul-04 00:00:00.0000, -8.596303091380474E+07, 2.855870523089948E+08, -1.252572766072656E+08,
2461232.500000000, A.D. 2026-Jul-11 00:00:00.0000, -9.765061969497260E+07, 2.807277473571266E+08, -1.232960086487688E+08,
2461239.500000000, A.D. 2026-Jul-18 00:00:00.0000, -1.091959770266595E+08, 2.754595798985079E+08, -1.211550951660069E+08,
2461246.500000000, A.D. 2026-Jul-25 00:00:00.0000, -1.205798014666696E+08, 2.697839584776226E+08, -1.188348971756946E+08,
2461253.500000000, A.D. 2026-Aug-01 00:00:00.0000, -1.317825160128503E+08, 2.637031586946464E+08, -1.163361496483042E+08,
2461260.500000000, A.D. 2026-Aug-08 00:00:00.0000, -1.427843191339816E+08, 2.572203629924904E+08, -1.136599797171632E+08,
2461267.500000000, A.D. 2026-Aug-15 00:00:00.0000, -1.535652405860884E+08, 2.503396983569784E+08, -1.108079239599112E+08,
2461274.500000000, A.D. 2026-Aug-22 00:00:00.0000, -1.641052027478398E+08, 2.430662725463005E+08, -1.077819443198924E+08,
2461281.500000000, A.D. 2026-Aug-29 00:00:00.0000, -1.743840896531041E+08, 2.354062068506353E+08, -1.045844422974975E+08,
2461288.500000000, A.D. 2026-Sep-05 00:00:00.0000, -1.843818213778257E+08, 2.273666618670449E+08, -1.012182715535955E+08,
2461295.500000000, A.D. 2026-Sep-12 00:00:00.0000, -1.940784310273351E+08, 2.189558581244241E+08, -9.768674865102360E+07,
$$EOE